[{"OBJECT_NAME":"STARLINK-33638","OBJECT_ID":"2025-069D","EPOCH":"2025-08-30T10:56:11.552928","MEAN_MOTION":15.39635234,"ECCENTRICITY":0.00014219,"INCLINATION":53.1592,"RA_OF_ASC_NODE":311.6185,"ARG_OF_PERICENTER":62.8093,"MEAN_ANOMALY":297.3057,"EPHEMERIS_TYPE":0,"CLASSIFICATION_TYPE":"U","NORAD_CAT_ID":63436,"ELEMENT_SET_NO":999,"REV_AT_EPOCH":2411,"BSTAR":0.00047296386,"MEAN_MOTION_DOT":0.00018574,"MEAN_MOTION_DDOT":0},{"OBJECT_NAME":"STARLINK-33726","OBJECT_ID":"2025-069E","EPOCH":"2025-08-30T22:10:35.447232","MEAN_MOTION":15.39639301,"ECCENTRICITY":0.0001468,"INCLINATION":53.16,"RA_OF_ASC_NODE":309.5646,"ARG_OF_PERICENTER":80.9193,"MEAN_ANOMALY":279.1978,"EPHEMERIS_TYPE":0,"CLASSIFICATION_TYPE":"U","NORAD_CAT_ID":63437,"ELEMENT_SET_NO":999,"REV_AT_EPOCH":2413,"BSTAR":0.0013741118,"MEAN_MOTION_DOT":0.00054996,"MEAN_MOTION_DDOT":0},{"OBJECT_NAME":"STARLINK-33681","OBJECT_ID":"2025-069F","EPOCH":"2025-08-30T21:57:13.213728","MEAN_MOTION":15.39640634,"ECCENTRICITY":0.00015601,"INCLINATION":53.1595,"RA_OF_ASC_NODE":309.5051,"ARG_OF_PERICENTER":89.1096,"MEAN_ANOMALY":271.0088,"EPHEMERIS_TYPE":0,"CLASSIFICATION_TYPE":"U","NORAD_CAT_ID":63438,"ELEMENT_SET_NO":999,"REV_AT_EPOCH":2418,"BSTAR":0.0011617556,"MEAN_MOTION_DOT":0.00046385,"MEAN_MOTION_DDOT":0},{"OBJECT_NAME":"STARLINK-33730","OBJECT_ID":"2025-069G","EPOCH":"2025-08-30T21:37:09.327360","MEAN_MOTION":15.39638082,"ECCENTRICITY":0.00012477,"INCLINATION":53.1585,"RA_OF_ASC_NODE":309.4181,"ARG_OF_PERICENTER":91.7631,"MEAN_ANOMALY":268.3517,"EPHEMERIS_TYPE":0,"CLASSIFICATION_TYPE":"U","NORAD_CAT_ID":63439,"ELEMENT_SET_NO":999,"REV_AT_EPOCH":2418,"BSTAR":0.0012782803,"MEAN_MOTION_DOT":0.00051104,"MEAN_MOTION_DDOT":0},{"OBJECT_NAME":"STARLINK-33743","OBJECT_ID":"2025-069H","EPOCH":"2025-08-30T12:22:58.975104","MEAN_MOTION":15.3963421,"ECCENTRICITY":0.00015004,"INCLINATION":53.1592,"RA_OF_ASC_NODE":311.283,"ARG_OF_PERICENTER":58.7585,"MEAN_ANOMALY":301.3567,"EPHEMERIS_TYPE":0,"CLASSIFICATION_TYPE":"U","NORAD_CAT_ID":63440,"ELEMENT_SET_NO":999,"REV_AT_EPOCH":2401,"BSTAR":0.00045778154,"MEAN_MOTION_DOT":0.00017963,"MEAN_MOTION_DDOT":0},{"OBJECT_NAME":"STARLINK-33715","OBJECT_ID":"2025-069J","EPOCH":"2025-08-30T22:00:01.999584","MEAN_MOTION":15.31016644,"ECCENTRICITY":0.00013652,"INCLINATION":53.1601,"RA_OF_ASC_NODE":308.7227,"ARG_OF_PERICENTER":79.356,"MEAN_ANOMALY":320.2923,"EPHEMERIS_TYPE":0,"CLASSIFICATION_TYPE":"U","NORAD_CAT_ID":63441,"ELEMENT_SET_NO":999,"REV_AT_EPOCH":591,"BSTAR":0.00047155972,"MEAN_MOTION_DOT":0.00013989,"MEAN_MOTION_DDOT":0},{"OBJECT_NAME":"STARLINK-33762","OBJECT_ID":"2025-069K","EPOCH":"2025-08-30T11:22:27.849216","MEAN_MOTION":15.3960806,"ECCENTRICITY":0.00012482,"INCLINATION":53.1593,"RA_OF_ASC_NODE":311.7317,"ARG_OF_PERICENTER":88.9306,"MEAN_ANOMALY":271.1842,"EPHEMERIS_TYPE":0,"CLASSIFICATION_TYPE":"U","NORAD_CAT_ID":63442,"ELEMENT_SET_NO":999,"REV_AT_EPOCH":2411,"BSTAR":0.0015382799,"MEAN_MOTION_DOT":0.00061605,"MEAN_MOTION_DDOT":0},{"OBJECT_NAME":"STARLINK-33753","OBJECT_ID":"2025-069L","EPOCH":"2025-08-30T21:50:03.323616","MEAN_MOTION":15.39642241,"ECCENTRICITY":0.00011375,"INCLINATION":53.1594,"RA_OF_ASC_NODE":309.4746,"ARG_OF_PERICENTER":80.7156,"MEAN_ANOMALY":279.3978,"EPHEMERIS_TYPE":0,"CLASSIFICATION_TYPE":"U","NORAD_CAT_ID":63443,"ELEMENT_SET_NO":999,"REV_AT_EPOCH":2417,"BSTAR":0.0012843722,"MEAN_MOTION_DOT":0.00051359,"MEAN_MOTION_DDOT":0},{"OBJECT_NAME":"STARLINK-33747","OBJECT_ID":"2025-069M","EPOCH":"2025-08-30T21:23:47.027328","MEAN_MOTION":15.39638827,"ECCENTRICITY":0.00010365,"INCLINATION":53.1587,"RA_OF_ASC_NODE":309.3575,"ARG_OF_PERICENTER":74.7783,"MEAN_ANOMALY":285.3336,"EPHEMERIS_TYPE":0,"CLASSIFICATION_TYPE":"U","NORAD_CAT_ID":63444,"ELEMENT_SET_NO":999,"REV_AT_EPOCH":2413,"BSTAR":0.0015119403,"MEAN_MOTION_DOT":0.00060596,"MEAN_MOTION_DDOT":0},{"OBJECT_NAME":"STARLINK-33659","OBJECT_ID":"2025-069N","EPOCH":"2025-08-30T21:36:40.928544","MEAN_MOTION":15.39639444,"ECCENTRICITY":0.00014068,"INCLINATION":53.1589,"RA_OF_ASC_NODE":309.4153,"ARG_OF_PERICENTER":79.5446,"MEAN_ANOMALY":280.5717,"EPHEMERIS_TYPE":0,"CLASSIFICATION_TYPE":"U","NORAD_CAT_ID":63445,"ELEMENT_SET_NO":999,"REV_AT_EPOCH":2413,"BSTAR":0.0013841074,"MEAN_MOTION_DOT":0.00055403,"MEAN_MOTION_DDOT":0},{"OBJECT_NAME":"STARLINK-33746","OBJECT_ID":"2025-069P","EPOCH":"2025-08-30T21:10:24.767904","MEAN_MOTION":15.39639203,"ECCENTRICITY":0.00014127,"INCLINATION":53.1589,"RA_OF_ASC_NODE":309.2983,"ARG_OF_PERICENTER":74.1534,"MEAN_ANOMALY":285.9627,"EPHEMERIS_TYPE":0,"CLASSIFICATION_TYPE":"U","NORAD_CAT_ID":63446,"ELEMENT_SET_NO":999,"REV_AT_EPOCH":2413,"BSTAR":0.0015314849,"MEAN_MOTION_DOT":0.00061392,"MEAN_MOTION_DDOT":0},{"OBJECT_NAME":"STARLINK-33799","OBJECT_ID":"2025-069Q","EPOCH":"2025-08-30T21:17:05.803008","MEAN_MOTION":15.39636621,"ECCENTRICITY":0.0001242,"INCLINATION":53.1587,"RA_OF_ASC_NODE":309.3272,"ARG_OF_PERICENTER":91.4768,"MEAN_ANOMALY":268.638,"EPHEMERIS_TYPE":0,"CLASSIFICATION_TYPE":"U","NORAD_CAT_ID":63447,"ELEMENT_SET_NO":999,"REV_AT_EPOCH":2407,"BSTAR":0.0013826898,"MEAN_MOTION_DOT":0.0005534,"MEAN_MOTION_DDOT":0},{"OBJECT_NAME":"STARLINK-33797","OBJECT_ID":"2025-069R","EPOCH":"2025-08-30T21:29:59.770752","MEAN_MOTION":15.39640383,"ECCENTRICITY":0.00014732,"INCLINATION":53.1585,"RA_OF_ASC_NODE":309.385,"ARG_OF_PERICENTER":85.5155,"MEAN_ANOMALY":274.6019,"EPHEMERIS_TYPE":0,"CLASSIFICATION_TYPE":"U","NORAD_CAT_ID":63448,"ELEMENT_SET_NO":999,"REV_AT_EPOCH":2413,"BSTAR":0.0018355538,"MEAN_MOTION_DOT":0.00073785,"MEAN_MOTION_DDOT":0},{"OBJECT_NAME":"STARLINK-33798","OBJECT_ID":"2025-069S","EPOCH":"2025-08-30T11:15:54.060480","MEAN_MOTION":15.30220467,"ECCENTRICITY":0.00015335,"INCLINATION":53.1592,"RA_OF_ASC_NODE":310.9796,"ARG_OF_PERICENTER":85.4046,"MEAN_ANOMALY":274.713,"EPHEMERIS_TYPE":0,"CLASSIFICATION_TYPE":"U","NORAD_CAT_ID":63449,"ELEMENT_SET_NO":999,"REV_AT_EPOCH":2385,"BSTAR":0.001031085,"MEAN_MOTION_DOT":0.00030323,"MEAN_MOTION_DDOT":0},{"OBJECT_NAME":"STARLINK-33736","OBJECT_ID":"2025-069T","EPOCH":"2025-08-30T11:42:23.099040","MEAN_MOTION":15.39628311,"ECCENTRICITY":0.00011199,"INCLINATION":53.1589,"RA_OF_ASC_NODE":311.1024,"ARG_OF_PERICENTER":97.081,"MEAN_ANOMALY":263.0322,"EPHEMERIS_TYPE":0,"CLASSIFICATION_TYPE":"U","NORAD_CAT_ID":63450,"ELEMENT_SET_NO":999,"REV_AT_EPOCH":2407,"BSTAR":0.0012417297,"MEAN_MOTION_DOT":0.00049606,"MEAN_MOTION_DDOT":0},{"OBJECT_NAME":"STARLINK-33740","OBJECT_ID":"2025-069U","EPOCH":"2025-08-30T11:29:00.675456","MEAN_MOTION":15.39603745,"ECCENTRICITY":0.00012926,"INCLINATION":53.1591,"RA_OF_ASC_NODE":311.0425,"ARG_OF_PERICENTER":74.3212,"MEAN_ANOMALY":285.7936,"EPHEMERIS_TYPE":0,"CLASSIFICATION_TYPE":"U","NORAD_CAT_ID":63451,"ELEMENT_SET_NO":999,"REV_AT_EPOCH":2401,"BSTAR":0.0012608744,"MEAN_MOTION_DOT":0.00050341,"MEAN_MOTION_DDOT":0},{"OBJECT_NAME":"STARLINK-33763","OBJECT_ID":"2025-069V","EPOCH":"2025-08-30T11:43:05.394432","MEAN_MOTION":15.30181341,"ECCENTRICITY":0.00012222,"INCLINATION":53.157,"RA_OF_ASC_NODE":310.3814,"ARG_OF_PERICENTER":83.2453,"MEAN_ANOMALY":276.8687,"EPHEMERIS_TYPE":0,"CLASSIFICATION_TYPE":"U","NORAD_CAT_ID":63452,"ELEMENT_SET_NO":999,"REV_AT_EPOCH":2413,"BSTAR":0.00073619184,"MEAN_MOTION_DOT":0.00021495,"MEAN_MOTION_DDOT":0},{"OBJECT_NAME":"STARLINK-33784","OBJECT_ID":"2025-069W","EPOCH":"2025-08-30T11:49:04.338048","MEAN_MOTION":15.39596344,"ECCENTRICITY":0.00011854,"INCLINATION":53.1586,"RA_OF_ASC_NODE":311.1315,"ARG_OF_PERICENTER":81.4705,"MEAN_ANOMALY":278.6434,"EPHEMERIS_TYPE":0,"CLASSIFICATION_TYPE":"U","NORAD_CAT_ID":63453,"ELEMENT_SET_NO":999,"REV_AT_EPOCH":2412,"BSTAR":0.0014988562,"MEAN_MOTION_DOT":0.00059979,"MEAN_MOTION_DDOT":0},{"OBJECT_NAME":"STARLINK-33768","OBJECT_ID":"2025-069X","EPOCH":"2025-08-30T21:25:38.722656","MEAN_MOTION":15.30201539,"ECCENTRICITY":0.00012041,"INCLINATION":53.1585,"RA_OF_ASC_NODE":308.6386,"ARG_OF_PERICENTER":84.1652,"MEAN_ANOMALY":275.9486,"EPHEMERIS_TYPE":0,"CLASSIFICATION_TYPE":"U","NORAD_CAT_ID":63454,"ELEMENT_SET_NO":999,"REV_AT_EPOCH":2419,"BSTAR":0.0010955139,"MEAN_MOTION_DOT":0.00032229,"MEAN_MOTION_DDOT":0},{"OBJECT_NAME":"STARLINK-33761","OBJECT_ID":"2025-069Y","EPOCH":"2025-08-30T11:47:39.082848","MEAN_MOTION":15.30186856,"ECCENTRICITY":0.00012171,"INCLINATION":53.1578,"RA_OF_ASC_NODE":310.4021,"ARG_OF_PERICENTER":70.5898,"MEAN_ANOMALY":289.5234,"EPHEMERIS_TYPE":0,"CLASSIFICATION_TYPE":"U","NORAD_CAT_ID":63455,"ELEMENT_SET_NO":999,"REV_AT_EPOCH":2413,"BSTAR":0.0009805743,"MEAN_MOTION_DOT":0.00028783,"MEAN_MOTION_DDOT":0},{"OBJECT_NAME":"STARLINK-33737","OBJECT_ID":"2025-069Z","EPOCH":"2025-08-30T21:21:05.136192","MEAN_MOTION":15.30208654,"ECCENTRICITY":0.00010587,"INCLINATION":53.1571,"RA_OF_ASC_NODE":308.6145,"ARG_OF_PERICENTER":87.1008,"MEAN_ANOMALY":273.0114,"EPHEMERIS_TYPE":0,"CLASSIFICATION_TYPE":"U","NORAD_CAT_ID":63456,"ELEMENT_SET_NO":999,"REV_AT_EPOCH":2408,"BSTAR":0.00096897972,"MEAN_MOTION_DOT":0.00028457,"MEAN_MOTION_DDOT":0},{"OBJECT_NAME":"STARLINK-33795","OBJECT_ID":"2025-069AA","EPOCH":"2025-08-30T22:00:35.955648","MEAN_MOTION":15.30206541,"ECCENTRICITY":0.00013458,"INCLINATION":53.161,"RA_OF_ASC_NODE":308.7956,"ARG_OF_PERICENTER":86.5008,"MEAN_ANOMALY":273.6147,"EPHEMERIS_TYPE":0,"CLASSIFICATION_TYPE":"U","NORAD_CAT_ID":63457,"ELEMENT_SET_NO":999,"REV_AT_EPOCH":2408,"BSTAR":0.0011665525,"MEAN_MOTION_DOT":0.00034358,"MEAN_MOTION_DDOT":0},{"OBJECT_NAME":"STARLINK-33756","OBJECT_ID":"2025-069AB","EPOCH":"2025-08-30T22:05:10.351680","MEAN_MOTION":15.3017961,"ECCENTRICITY":0.0001721,"INCLINATION":53.1603,"RA_OF_ASC_NODE":308.8073,"ARG_OF_PERICENTER":73.235,"MEAN_ANOMALY":286.884,"EPHEMERIS_TYPE":0,"CLASSIFICATION_TYPE":"U","NORAD_CAT_ID":63458,"ELEMENT_SET_NO":999,"REV_AT_EPOCH":2419,"BSTAR":0.00064327347,"MEAN_MOTION_DOT":0.00018729,"MEAN_MOTION_DDOT":0}]
